ONEWEB-0156             
1 48052U 21025L   23363.85145823  .00000153  00000+0  38413-3 0  9992
2 48052  87.9003 139.4047 0001448 100.1215 260.0077 13.13469469135381
ONEWEB-0161             
1 48053U 21025M   23363.90064547 -.00001604  00000+0 -44262-2 0  9994
2 48053  87.8991 139.3989 0001697  96.6084 263.5238 13.13479050135328
ONEWEB-0158             
1 48054U 21025N   23363.93873453 -.00000148  00000+0 -44147-3 0  9997
2 48054  87.9002 139.3851 0001388 106.4945 253.6337 13.13468331135458
ONEWEB-0157             
1 48055U 21025P   23363.88637548 -.00000160  00000+0 -47270-3 0  9999
2 48055  87.9000 139.4127 0001521  91.2183 268.9120 13.13470986135388
ONEWEB-0162             
1 48056U 21025Q   23363.92606844  .00000342  00000+0  90109-3 0  9999
2 48056  87.9000 139.4028 0001405  98.8317 261.2971 13.13470838135366
ONEWEB-0155             
1 48057U 21025R   23363.87049769 -.00000323  00000+0 -91816-3 0  9998
2 48057  87.9001 139.4216 0001559 103.7537 256.3766 13.13469193135490
ONEWEB-0149             
1 48058U 21025S   23363.89113639 -.00000078  00000+0 -24788-3 0  9990
2 48058  87.9000 139.4150 0001360  93.7225 266.4059 13.13471532135306
ONEWEB-0148             
1 48059U 21025T   23363.93239195  .00000638  00000+0  17120-2 0  9993
2 48059  87.8999 139.4108 0001433  71.4218 288.7066 13.13469147135430
